[{"OBJECT_NAME":"OBJECT AL","OBJECT_ID":"2023-085AL","EPOCH":"2026-03-09T22:26:04.970400","MEAN_MOTION":15.31857284,"ECCENTRICITY":0.000802,"INCLINATION":97.4839,"RA_OF_ASC_NODE":180.0127,"ARG_OF_PERICENTER":78.7242,"MEAN_ANOMALY":281.49,"EPHEMERIS_TYPE":0,"CLASSIFICATION_TYPE":"U","NORAD_CAT_ID":57038,"ELEMENT_SET_NO":999,"REV_AT_EPOCH":15154,"BSTAR":0.0006591637,"MEAN_MOTION_DOT":0.00020246,"MEAN_MOTION_DDOT":0},{"OBJECT_NAME":"STARLINK-31258","OBJECT_ID":"2024-017D","EPOCH":"2026-03-09T16:10:54.145920","MEAN_MOTION":15.30231444,"ECCENTRICITY":0.00010102,"INCLINATION":53.1604,"RA_OF_ASC_NODE":204.4049,"ARG_OF_PERICENTER":84.1447,"MEAN_ANOMALY":275.9668,"EPHEMERIS_TYPE":0,"CLASSIFICATION_TYPE":"U","NORAD_CAT_ID":58829,"ELEMENT_SET_NO":999,"REV_AT_EPOCH":12005,"BSTAR":6.8064732e-5,"MEAN_MOTION_DOT":1.659e-5,"MEAN_MOTION_DDOT":0}]
